{
  "norad_id": 52629,
  "name": "STARLINK-4022",
  "history": [
    {
      "epoch": "2026-03-28T14:04:47.590752Z",
      "apogee_km": 540.4056128717621,
      "perigee_km": 539.0552451496196,
      "latitude_deg": 2.1776757242578087e-05,
      "longitude_deg": 147.04674520336008,
      "height_km": 540.5834384194623,
      "semi_major_axis_km": 6917.867429010691,
      "eccentricity": 9.76e-05,
      "inclination_deg": 53.217,
      "raan_deg": 184.25,
      "arg_perigee_deg": 86.3334,
      "mean_anomaly_deg": 273.777,
      "mean_motion_rev_day": 15.0884424
    }
  ]
}